STARLINK-32359          
1 61957U 24209U   26068.47922661  .00014063  00000+0  48615-3 0  9994
2 61957  53.1574 143.4521 0001179 110.0444 250.0684 15.30190850 74881
TEVEL2-6                
1 63215U 25052F   26068.64958975  .00021046  00000+0  70909-3 0  9996
2 63215  97.4016 325.0381 0004769  95.6604 264.5181 15.30760889 54861
